45P/Honda-Mrkos-Pajdusakova,e,4.3246,87.6639,327.9739,3.056910,0.1844082,0.81748947,254.2021,02/04.0/2026,2000,g 13.5,8.0
# From MPEC 2025-W75
46P/Wirtanen,e,11.7488,82.1642,356.3581,3.092723,0.1812143,0.65860678,113.4257,02/04.0/2026,2000,g 14.0,6.0
# From MPEC 2026-A90
47P/Ashbrook-Jackson,e,13.0397,356.8812,357.9175,4.116096,0.1180255,0.31793217,11.6845,02/04.0/2026,2000,g  1.0,11.2
# From MPEC 2026-A90
48P/Johnson,e,12.2018,110.0632,216.8086,3.499774,0.1505373,0.42650166,50.9275,02/04.0/2026,2000,g 10.0,6.0
# From MPEC 2026-A24
49P/Arend-Rigaux,e,19.0597,118.7904,332.9295,3.569059,0.1461751,0.59892312,43.7657,02/04.0/2026,2000,g 11.3,4.4
# From MPEC 2025-W75
50P/Arend,e,19.1006,355.1445,49.3021,4.085683,0.1193458,0.52954425,75.4848,02/04.0/2026,2000,g  9.5,6.0
# From MPEC 2025-W75
51P/Harrington,e,5.4263,83.6581,269.2149,3.705384,0.1381829,0.54266585,168.9652,02/04.0/2026,2000,g 10.0,8.0
# From NK 3014
51P-A/Harrington,e,5.4261,269.2265,83.6264,3.706613,0.1381141,0.54286152,168.5245,02/04.0/2026,2000,g 10.0,8.0
# From MPEC 2025-W75
52P/Harrington-Abell,e,10.2409,336.7414,139.6450,3.861717,0.1298773,0.54121025,205.3593,02/04.0/2026,2000,g 13.5,6.0
# From MPEC 2025-W75
53P/VanBiesbroeck,e,6.6049,148.8487,134.3268,5.440559,0.0776674,0.55013574,278.0391,02/04.0/2026,2000,g  7.7,4.8
# From MPEC 2025-W75
54P/deVico-Swift-NEAT,e,6.0742,358.4052,2.4147,3.795417,0.1332953,0.42883032,68.9281,02/04.0/2026,2000,g 10.0,6.0
# From MPEC 2025-W75
55P/Tempel-Tuttle,e,162.4929,235.4095,172.5343,10.33373,0.0296701,0.90533473,302.5738,02/04.0/2026,2000,g 10.0,10.0
# From MPEC 2025-W75
56P/Slaughter-Burnham,e,8.1552,345.8701,44.2374,5.062768,0.0865211,0.50816085,300.8498,02/04.0/2026,2000,g  8.5,6.0
# From MPEC 2025-W75
57P/duToit-Neujmin-Delporte,e,2.8554,188.6946,115.1080,3.439662,0.1545007,0.50200995,242.7445,02/04.0/2026,2000,g 12.5,6.0
# From MPEC 2025-W75
58P/Jackson-Neujmin,e,13.0835,159.0266,200.5781,4.091877,0.1190749,0.66137391,247.6869,02/04.0/2026,2000,g 15.5,6.0
# From MPEC 2025-W75
59P/Kearns-Kwee,e,9.3575,312.7263,127.7003,4.478011,0.1040103,0.47700930,279.8471,02/04.0/2026,2000,g  7.0,6.0
# From MPEC 2025-W75
60P/Tsuchinshan,e,3.5798,267.3955,216.9153,3.529268,0.1486542,0.53367943,29.4921,02/04.0/2026,2000,g 11.5,6.0
# From MPEC 2025-W75
61P/Shajn-Schaldach,e,5.9956,162.9550,221.7183,3.691318,0.1389735,0.42276206,166.7674,02/04.0/2026,2000,g  6.0,10.0
# From MPEC 2025-W75
62P/Tsuchinshan,e,4.7361,68.6609,47.3501,3.371585,0.1592036,0.62473340,122.8569,02/04.0/2026,2000,g  8.0,10.0
# From MPEC 2026-A90
63P/Wild,e,19.6169,357.7487,168.7352,5.657630,0.0732407,0.65094134,348.8569,02/04.0/2026,2000,g 10.5,6.0
# From MPEC 2025-W75
64P/Swift-Gehrels,e,8.9549,299.7618,97.3411,4.452334,0.1049113,0.68822270,277.5103,02/04.0/2026,2000,g  9.5,12.0
# From MPEC 2025-X35
65P/Gunn,e,9.1749,61.9702,213.6423,3.891490,0.1283897,0.24807959,29.8754,02/04.0/2026,2000,g  5.0,6.0
# From MPEC 2025-W75
66P/duToit,e,18.6466,21.8583,257.3388,6.070514,0.0658970,0.78492827,186.2503,02/04.0/2026,2000,g 12.0,3.6
# From MPEC 2025-W75
67P/Churyumov-Gerasimenko,e,3.8671,36.3007,22.2298,3.458778,0.1532216,0.64967239,238.1301,02/04.0/2026,2000,g 11.0,4.0
# From MPEC 2025-W75
68P/Klemola,e,11.0967,175.0975,153.1906,4.964328,0.0891073,0.63560997,203.4591,02/04.0/2026,2000,g 10.0,4.0
# From MPEC 2025-W75
69P/Taylor,e,22.0612,104.8067,343.5393,3.879102,0.1290052,0.41466870,323.6925,02/04.0/2026,2000,g  9.5,12.0
# From MPEC 2025-W75
70P/Kojima,e,6.6037,119.2362,1.8135,3.674890,0.1399064,0.45494316,217.1661,02/04.0/2026,2000,g 11.0,6.0
# From MPEC 2025-W75
71P/Clark,e,9.1958,58.9090,210.8183,3.185544,0.1733519,0.48221253,193.0568,02/04.0/2026,2000,g  9.8,6.0
# From MPEC 2025-W75
72P/Denning-Fujikawa,e,10.9397,26.7333,346.7354,4.307638,0.1102415,0.81814707,106.3449,02/04.0/2026,2000,g 17.5,10.0
# From MPEC 2025-W75
73P/Schwassmann-Wachmann,e,6.3032,53.3233,213.7551,3.054394,0.1846361,0.70441653,233.5120,02/04.0/2026,2000,g 11.5,6.0
# From MPC106348
73P-BT/Schwassmann-Wachmann,e,10.6070,189.8561,78.3350,3.080322,0.1823097,0.69278259,229.3332,02/04.0/2026,2000,g 11.5,6.0
# From MPEC 2026-A24
74P/Smirnova-Chernykh,e,5.9328,50.7512,58.1612,5.148208,0.0843762,0.06040409,357.1249,02/04.0/2026,2000,g  5.0,6.0
# From MPEC 2025-WD0
76P/West-Kohoutek-Ikemura,e,30.4983,84.1088,0.0244,3.467046,0.1526739,0.53943743,349.5199,02/04.0/2026,2000,g  8.0,12.0
# From MPEC 2025-W75
77P/Longmore,e,24.3313,14.7475,196.5904,3.619455,0.1431328,0.35205785,148.5773,02/04.0/2026,2000,g  7.0,8.0
# From MPEC 2026-A24
78P/Gehrels,e,6.2574,210.4953,192.7873,3.732443,0.1366830,0.46294367,340.7165,02/04.0/2026,2000,g  5.5,8.0
# From MPEC 2025-W75
79P/duToit-Hartley,e,3.1489,280.4851,281.7643,2.942018,0.1953152,0.61957089,167.4943,02/04.0/2026,2000,g 16.0,4.0
# From MPEC 2025-W75
80P/Peters-Hartley,e,29.9289,259.7695,339.2491,4.020866,0.1222432,0.59770924,141.0829,02/04.0/2026,2000,g  9.0,8.0
# From MPEC 2025-W75
81P/Wild,e,3.2388,136.1061,41.5449,3.450968,0.1537421,0.53791501,176.1627,02/04.0/2026,2000,g  7.0,6.0
# From MPEC 2025-W75
82P/Gehrels,e,1.1294,239.2903,226.3402,4.133714,0.1172718,0.12327278,326.6445,02/04.0/2026,2000,g  5.0,8.0
# From MPEC 2025-W75
84P/Giclas,e,7.5529,108.0797,281.7426,3.550012,0.1473531,0.51557865,304.9353,02/04.0/2026,2000,g  9.5,8.0
# From MPEC 2025-W75
86P/Wild,e,15.4642,72.0789,180.9684,3.654361,0.1410870,0.36000016,207.1813,02/04.0/2026,2000,g 11.0,6.0
# From MPEC 2025-WD0
87P/Bus,e,3.8604,175.6731,63.8015,4.461560,0.1045861,0.19652324,229.9407,02/04.0/2026,2000,g  7.2,10.0
# From MPEC 2025-W75
88P/Howell,e,4.3819,56.6694,235.8675,3.109089,0.1797854,0.56328124,352.3100,02/04.0/2026,2000,g 11.0,6.0
# From MPEC 2025-W75
89P/Russell,e,12.0671,41.3400,250.4743,3.751780,0.1356276,0.40710984,92.1642,02/04.0/2026,2000,g 11.5,6.0
# From MPEC 2025-W75
90P/Gehrels,e,9.6336,13.1482,29.2336,6.055583,0.0661409,0.51022409,208.1797,02/04.0/2026,2000,g  8.5,6.0
# From MPEC 2025-WD0
91P/Russell,e,15.9582,241.9694,356.8726,4.161680,0.1160917,0.25157220,244.5258,02/04.0/2026,2000,g  7.5,6.0
# From MPEC 2025-W75
92P/Sanguin,e,19.4776,181.3345,163.7814,5.345829,0.0797410,0.65991986,318.0184,02/04.0/2026,2000,g 12.0,6.0
# From MPEC 2026-A24
93P/Lovas,e,12.2106,339.5495,75.0421,4.372329,0.1078040,0.61384282,350.5190,02/04.0/2026,2000,g  9.5,6.0
# From MPEC 2025-W75
94P/Russell,e,6.1871,70.8382,92.3839,3.509622,0.1499041,0.36621605,148.3367,02/04.0/2026,2000,g  9.0,6.0
# From MPEC 2025-W75
96P/Machholz,e,57.5800,93.9605,14.7410,3.031001,0.1867776,0.96172995,205.3495,02/04.0/2026,2000,g 13.0,4.8
# From MPC106348
96P-B/Machholz,e,57.5091,14.5042,94.0623,3.029976,0.1868724,0.96175038,205.5094,02/04.0/2026,2000,g 13.0,4.8
# From MPEC 2025-W75
97P/Metcalf-Brewington,e,17.9321,184.0642,230.2362,4.771334,0.0945680,0.45962854,137.0570,02/04.0/2026,2000,g  5.5,6.0
# From MPEC 2025-W75
98P/Takamizawa,e,10.8902,114.4625,158.3704,3.744466,0.1360252,0.58269400,249.1812,02/04.0/2026,2000,g  9.0,8.0
# From MPEC 2025-W75
99P/Kowal,e,4.3394,28.0481,174.5076,6.092885,0.0655344,0.22898990,91.5505,02/04.0/2026,2000,g  4.5,6.0
# From MPEC 2025-W75
100P/Hartley,e,25.5684,37.6859,181.8937,3.430210,0.1551397,0.41140575,197.6818,02/04.0/2026,2000,g  9.0,8.0
# From MPEC 2025-W75
101P/Chernykh,e,5.0485,116.1127,278.0099,5.819242,0.0702109,0.59516676,155.4946,02/04.0/2026,2000,g 10.0,4.8
# From MPEC 2025-W75
102P/Shoemaker,e,25.8450,339.3459,20.7011,3.821004,0.1319586,0.45575468,242.8490,02/04.0/2026,2000,g  6.5,8.0
# From MPEC 2025-W75
103P/Hartley,e,13.6038,219.7620,181.3344,3.476203,0.1520710,0.69328850,128.6084,02/04.0/2026,2000,g  8.5,8.0
# From MPEC 2025-W75
104P/Kowal,e,5.6999,207.1624,227.3329,3.208495,0.1714952,0.66582782,254.3695,02/04.0/2026,2000,g 16.0,4.0
# From MPEC 2025-W75
105P/SingerBrewster,e,9.1681,192.3866,46.3119,3.472583,0.1523088,0.40917571,57.4650,02/04.0/2026,2000,g 11.5,6.0
# From MPEC 2025-W75
106P/Schuster,e,19.5273,48.8653,353.8009,3.768829,0.1347083,0.59327695,219.5811,02/04.0/2026,2000,g 14.0,4.8
# From MPEC 2025-W75
108P/Ciffreo,e,11.4307,50.2731,354.5648,3.744404,0.1360285,0.55542441,218.6961,02/04.0/2026,2000,g  8.0,12.0
# From MPEC 2025-W75
109P/Swift-Tuttle,e,112.9216,139.8426,153.2446,26.18993,0.0073536,0.96316908,88.9687,02/04.0/2026,2000,g  4.5,6.0
# From MPEC 2025-W75
110P/Hartley,e,11.7118,287.4818,167.5929,3.603296,0.1440968,0.31924561,225.9210,02/04.0/2026,2000,g  1.0,12.0
# From MPEC 2025-WD0
111P/Helin-Roman-Crockett,e,4.2262,89.7329,1.5978,4.153109,0.1164512,0.10713052,196.7190,02/04.0/2026,2000,g  5.0,8.0
# From MPEC 2025-WD0
112P/Urata-Niijima,e,24.2033,31.7981,21.5766,3.521650,0.1491368,0.59076213,325.7212,02/04.0/2026,2000,g 14.0,6.0
# From MPEC 2025-W75
113P/Spitaler,e,5.2879,306.6111,115.7660,3.696786,0.1386653,0.41942757,186.2647,02/04.0/2026,2000,g 13.5,4.0
# From MPEC 2025-W75
114P/Wiseman-Skiff,e,18.3034,271.0234,172.8388,3.538810,0.1480533,0.55611787,326.9863,02/04.0/2026,2000,g 11.5,6.0
# From MPEC 2025-W75
115P/Maury,e,11.6970,175.9020,120.9574,4.269521,0.1117211,0.51879355,225.5267,02/04.0/2026,2000,g 10.5,6.0
# From MPEC 2025-W75
116P/Wild,e,3.6052,20.9584,173.1495,3.485129,0.1514871,0.37103208,196.6204,02/04.0/2026,2000,g  2.5,10.0
# From MPEC 2026-A24
117P/Helin-Roman-Alu,e,8.6537,58.7595,224.9917,4.126716,0.1175702,0.24997974,153.4818,02/04.0/2026,2000,g  2.5,8.0
# From MPEC 2025-W75
118P/Shoemaker-Levy,e,10.0932,142.0439,314.9808,3.349115,0.1608085,0.45377500,187.6696,02/04.0/2026,2000,g 12.0,4.0
# From MPEC 2025-W75
119P/Parker-Hartley,e,7.3929,104.5408,322.3031,3.810492,0.1325050,0.38788098,168.5006,02/04.0/2026,2000,g  3.5,8.0
# From MPEC 2025-W75
120P/Mueller,e,8.4787,358.6414,36.8485,3.970805,0.1245622,0.37383287,215.9749,02/04.0/2026,2000,g 12.0,4.0
# From MPEC 2025-W75
121P/Shoemaker-Holt,e,20.1620,94.1052,12.0830,4.591079,0.1001918,0.18666273,95.0424,02/04.0/2026,2000,g  6.5,8.0
# From MPEC 2025-W75
122P/deVico,e,85.9671,79.7299,13.0115,17.63590,0.0133078,0.96265694,147.4012,02/04.0/2026,2000,g  7.5,5.2
# From MPEC 2026-A90
